[{"OBJECT_NAME":"ICEYE-X6","OBJECT_ID":"2020-068M","EPOCH":"2026-03-09T22:38:15.311328","MEAN_MOTION":15.03906063,"ECCENTRICITY":0.00090855,"INCLINATION":98.0946,"RA_OF_ASC_NODE":57.9399,"ARG_OF_PERICENTER":68.4739,"MEAN_ANOMALY":291.7454,"EPHEMERIS_TYPE":0,"CLASSIFICATION_TYPE":"U","NORAD_CAT_ID":46497,"ELEMENT_SET_NO":999,"REV_AT_EPOCH":29831,"BSTAR":0.00025875904,"MEAN_MOTION_DOT":3.502e-5,"MEAN_MOTION_DDOT":0},{"OBJECT_NAME":"STARLINK-34586","OBJECT_ID":"2025-158U","EPOCH":"2026-03-09T14:54:31.045824","MEAN_MOTION":15.05649193,"ECCENTRICITY":0.0002291,"INCLINATION":97.6022,"RA_OF_ASC_NODE":293.9897,"ARG_OF_PERICENTER":63.8089,"MEAN_ANOMALY":296.3373,"EPHEMERIS_TYPE":0,"CLASSIFICATION_TYPE":"U","NORAD_CAT_ID":64950,"ELEMENT_SET_NO":999,"REV_AT_EPOCH":3534,"BSTAR":0.00020921,"MEAN_MOTION_DOT":2.959e-5,"MEAN_MOTION_DDOT":0}]
